POPACS 1                
1 39268U 13055D   22180.53177705  .00011519  00000+0  29067-3 0  9993
2 39268  80.9953 226.5030 0571341 163.9691 198.0462 14.50621003455059
POPACS 2                
1 39269U 13055E   22180.58585026  .00003580  00000+0  98783-4 0  9999
2 39269  81.0135 283.5985 0645637 312.1072  42.6899 14.33098318451925
POPACS 3                
1 39270U 13055F   22180.40802547  .00004197  00000+0  12540-3 0  9993
2 39270  81.0151 316.8607 0689135  46.2919 319.3260 14.22055960430334
ZACUBE-1 (TSHEPISOSAT)  
1 39417U 13066B   22180.85503925  .00001079  00000+0  13739-3 0  9992
2 39417  97.6368 151.7919 0057998   5.7182 354.4682 14.82382841464961
WNISAT-1                
1 39423U 13066H   22180.61722486  .00000473  00000+0  10162-3 0  9992
2 39423  97.7535  61.2010 0175553  99.6899 262.4193 14.53496135456211
TRITON-1                
1 39427U 13066M   22180.79982009  .00000463  00000+0  80239-4 0  9996
2 39427  97.8136 116.0590 0110641 224.7526 134.4715 14.68993925460599
DELFI-N3XT              
1 39428U 13066N   22180.78535454  .00000847  00000+0  13811-3 0  9991
2 39428  97.8147 114.6142 0115762 238.1632 120.8264 14.69227254460342
GOMX-1                  
1 39430U 13066Q   22175.71835090  .00001690  00000+0  30809-3 0  9993
2 39430  97.8095  82.5020 0150085  22.5380 338.2325 14.60209619457353
CUBEBUG-2 (LO-74)       
1 39440U 13066AA  22180.85305800  .00000868  00000+0  12369-3 0  9993
2 39440  97.7266 137.8886 0080354  91.1625 269.8793 14.77033432462116
NEE-02 KRYSAOR          
1 39441U 13066AB  22180.86594613  .00000581  00000+0  87454-4 0  9997
2 39441  97.7378 135.0803 0082103 104.5118 256.5218 14.75760942463027
FUNCUBE-1 (AO-73)       
1 39444U 13066AE  22180.86265259  .00001283  00000+0  15818-3 0  9995
2 39444  97.6247 154.2061 0056488 353.9179   6.1343 14.83475147463361
UWE-3                   
1 39446U 13066AG  22180.85345411  .00001041  00000+0  14005-3 0  9994
2 39446  97.6860 144.3807 0069992  49.7575 310.9731 14.79599293462298
AEROCUBE 5A             
1 39465U 13072D   22180.54366355  .00013808  00000+0  82540-3 0  9991
2 39465 120.4870 357.6336 0196391 292.2998  65.7352 14.96771581151435
AEROCUBE 5B             
1 39466U 13072E   22180.79362732  .00042783  00000+0  15799-2 0  9999
2 39466 120.4594  86.2984 0141966 315.8478  43.1338 15.18442670152609
BRITE-CA1 (TORONTO)     
1 40020U 14033L   22180.89892140  .00000276  00000+0  55015-4 0  9995
2 40020  97.7795 339.2257 0085869 223.0753 136.3711 14.67050898429488
DUCHIFAT-1              
1 40021U 14033M   22180.80676651  .00002017  00000+0  19991-3 0  9991
2 40021  98.0131 131.2321 0012712   8.1838 351.9585 14.92937222436544
NANOSATC-BR1            
1 40024U 14033Q   22180.82136249  .00001317  00000+0  13641-3 0  9998
2 40024  97.9861 124.5520 0012377  14.3708 345.7860 14.91774104435827
QB50P1                  
1 40025U 14033R   22180.81080330  .00001089  00000+0  11725-3 0  9994
2 40025  97.9609 118.3064 0012895  23.5460 336.6345 14.90544444435608
QB50P2                  
1 40032U 14033Y   22180.77389930  .00001144  00000+0  12453-3 0  9996
2 40032  97.9382 113.6042 0012260  21.6854 338.4880 14.89968328435456
PERSEUS-M2              
1 40037U 14033AD  22180.75439874  .00000450  00000+0  56182-4 0  9999
2 40037  97.8966 102.9074 0015300  42.1697 318.0693 14.87119383434952
PERSEUS-M1              
1 40039U 14033AF  22180.75239926  .00000445  00000+0  56133-4 0  9997
2 40039  97.8868 100.6462 0015134  41.4068 318.8291 14.86728493434836
POLYITAN-1              
1 40042U 14033AJ  22180.82489299  .00001425  00000+0  15137-3 0  9996
2 40042  97.9714 119.5274 0014897  14.9278 345.2376 14.90573866435492
TIGRISAT                
1 40043U 14033AK  22180.77782719  .00000566  00000+0  88802-4 0  9999
2 40043  97.6560   9.3727 0060608 115.9658 244.7812 14.75031654431449
AEROCUBE 6A             
1 40045U 14033AM  22180.80358739  .00000641  00000+0  96656-4 0  9996
2 40045  97.6660  18.2029 0058432 103.8773 256.8947 14.76420210431604
AEROCUBE 6B             
1 40046U 14033AN  22180.50691301  .00001184  00000+0  17138-3 0  9999
2 40046  97.6572  16.3789 0057355 103.1521 257.6098 14.76762856431562
UKUBE-1                 
1 40074U 14037F   22180.67869275  .00001426  00000+0  17232-3 0  9993
2 40074  98.3809  61.9872 0003137 254.1663 105.9203 14.85441283431882
BRITE-PL2 (HEWELIUSZ)   
1 40119U 14049B   22180.80816856  .00000513  00000+0  66163-4 0  9992
2 40119  97.8844 276.3064 0016832 197.1860 162.8787 14.85151001425845
FIREBIRD 4              
1 40378U 15003C   22180.88297355  .00008119  00000+0  24234-3 0  9997
2 40378  99.0992  48.7815 0099152 343.5255  16.2764 15.30212788410321
GRIFEX                  
1 40379U 15003D   22180.80142575  .00005607  00000+0  19922-3 0  9990
2 40379  99.1103  34.4672 0115607  26.3869 334.3187 15.23414762409500
CP10 (EXOCUBE)          
1 40380U 15003E   22180.86488992  .00003909  00000+0  15190-3 0  9990
2 40380  99.1193  27.3174 0124053  50.1424 311.0639 15.19992586409050
TIANWANG 1A (TW-1A)     
1 40928U 15051D   22180.87009552  .00021840  00000+0  26425-3 0  9990
2 40928  97.0365 203.4182 0005419 359.5124 124.5226 15.60685286380171
EXACTVIEW 9             
1 40936U 15052G   22180.53115018  .00001154  00000+0  70734-4 0  9997
2 40936   6.0040  87.3400 0010685 324.8465  35.0958 14.77174813365005
AEROCUBE 5C             
1 40965U 15058B   22180.92053160  .00000575  00000+0  81061-4 0  9998
2 40965  64.7779  53.5217 0191473 196.2958 163.1938 14.75629991150802
AEROCUBE 7              
1 40966U 15058C   22180.84666578  .00000771  00000+0  10147-3 0  9997
2 40966  64.7778  50.9104 0189514 195.9765 163.5313 14.76184210150793
ATHENOXAT 1             
1 41168U 15077C   22180.83600694  .00010313  00000+0  41405-3 0  9993
2 41168  14.9938 358.6257 0009107  51.1404 156.4965 15.21259817362192
GALASSIA                
1 41170U 15077E   22179.67716744  .00006655  00000+0  26144-3 0  9997
2 41170  14.9897 358.1076 0010932  65.2100 294.9358 15.20540261361930
VELOX-II                
1 41171U 15077F   22179.90051638  .00004560  00000+0  19522-3 0  9993
2 41171  14.9921  70.2820 0007955 268.7702  91.1708 15.15914140361411
HORYU-4                 
1 41340U 16012D   22180.58898055  .00001552  00000+0  10496-3 0  9998
2 41340  31.0047 281.6232 0013259 321.2605  38.7080 15.03388225349551
E-ST@R-II               
1 41459U 16025D   22180.71958872  .00009019  00000+0  39102-3 0  9993
2 41459  98.1857 346.7813 0144312 227.2655 131.6341 15.13634793339353
AAUSAT 4                
1 41460U 16025E   22180.78861479  .00016779  00000+0  63765-3 0  9991
2 41460  98.1786 353.1660 0125773 202.6156 156.9531 15.19714648339817
BEESAT-4                
1 41619U 16040W   22180.66209780  .00007025  00000+0  23351-3 0  9993
2 41619  97.2155 230.9665 0011119  78.8208 281.4283 15.31426862322596
RAVAN                   
1 41849U 16067B   22180.84641933  .00001608  00000+0  13153-3 0  9997
2 41849  98.0024 318.1842 0014929 306.1430  53.8410 15.00788737307850
CELTEE 1                
1 41850U 16067C   22180.33275893  .00000980  00000+0  87189-4 0  9994
2 41850  98.0010 312.6591 0006987 307.2523  52.8060 14.98510172307534
OPTICUBE 04             
1 41851U 16067D   22180.85316507  .00001282  00000+0  11437-3 0  9998
2 41851  97.9988 312.2300 0006963 306.2911  53.7667 14.97814603307566
AEROCUBE 8D             
1 41852U 16067E   22180.85745779  .00001639  00000+0  14256-3 0  9994
2 41852  97.9985 312.2477 0007440 306.7842  53.2696 14.98412158307554
AEROCUBE 8C             
1 41853U 16067F   22180.90559323  .00001523  00000+0  13298-3 0  9996
2 41853  97.9957 312.1184 0007904 301.6676  58.3774 14.98369066307554
PROMETHEUS 2-1          
1 41854U 16067G   22180.86470238  .00001664  00000+0  14038-3 0  9998
2 41854  98.0014 313.1699 0008875 314.3078  45.7416 14.99574581307608
PROMETHEUS 2-3          
1 41855U 16067H   22180.85725820  .00002466  00000+0  20551-3 0  9996
2 41855  98.0008 313.2374 0007484 317.8182  42.2464 14.99592000307603
INS-1B                  
1 41954U 17008G   22180.72226250  .00006567  00000+0  21633-3 0  9999
2 41954  97.2569 240.3548 0008005 178.0216 182.1059 15.31775653298623
BGUSAT                  
1 41999U 17008BD  22180.74208854  .00016388  00000+0  39257-3 0  9993
2 41999  97.2807 251.1047 0006580 164.4209 195.7241 15.41480713298532
DIDO-2                  
1 42000U 17008BE  22180.79568538  .00003251  00000+0  11911-3 0  9992
2 42000  97.2557 239.7777 0006861 200.6064 159.4901 15.28686492297956
PEASSS                  
1 42015U 17008BV  22180.74501899  .00005511  00000+0  18156-3 0  9999
2 42015  97.2626 243.6025 0005182 189.6141 170.5002 15.31866460298659
AL-FARABI 1             
1 42016U 17008BW  22180.74231487  .00007912  00000+0  23649-3 0  9993
2 42016  97.2691 246.6670 0004967 181.7811 178.3416 15.34833438298936
NAYIF-1 (EO-88)         
1 42017U 17008BX  22180.69105710  .00008186  00000+0  24352-3 0  9993
2 42017  97.2683 246.6291 0005246 181.0441 179.0792 15.34972268298952
UCLSAT                  
1 42765U 17036A   22180.68542453  .00005764  00000+0  20070-3 0  9994
2 42765  97.1958 222.9677 0007233 280.2910  79.7515 15.30028743279721
LITUANICASAT-2          
1 42768U 17036D   22180.84604761  .00012802  00000+0  36555-3 0  9992
2 42768  97.2043 225.9375 0008569 252.9997 107.0308 15.36113174279153
AALTO-1                 
1 42775U 17036L   22180.82895383  .00003185  00000+0  12729-3 0  9991
2 42775  97.1959 218.1120 0010514 283.8421  76.1647 15.25772712278660
URSA MAIOR              
1 42776U 17036M   22180.67422752  .00003689  00000+0  14454-3 0  9997
2 42776  97.1975 218.7030 0010146 283.0006  77.0100 15.26342563278670
COMPASS 2               
1 42777U 17036N   22180.89705741  .00008988  00000+0  28480-3 0  9995
2 42777  97.2030 225.3019 0007570 260.2950  99.7438 15.32919835279054
